NORAD_CAT_ID,OBJECT_NAME,OBJECT_TYPE,EPOCH,MEAN_MOTION,ECCENTRICITY,INCLINATION,RA_OF_ASC_NODE,ARG_OF_PERICENTER,MEAN_ANOMALY,BSTAR,MEAN_MOTION_DOT,MEAN_MOTION_DDOT,TLE_LINE0,TLE_LINE1,TLE_LINE2,SEMIMAJOR_AXIS,PERIOD,APOGEE,PERIGEE,DECAYED
54787.0,STARLINK-5441,PAYLOAD,2023-08-11 22:51:31,15.08835607,1.87e-05,53.2166,306.9778,223.6819,136.4158,-0.00024516,-4.186e-05,0.0,0 STARLINK-5441,1 54787U 22175AF  23223.95245035 -.00004186  00000-0 -24516-3 0  9995,2 54787  53.2166 306.9778 0000187 223.6819 136.4158 15.08835607 35743,6917.894,95.438,539.888,539.629,0.0
54787.0,STARLINK-5441,PAYLOAD,2023-08-12 17:56:09,15.08852108,7.98e-05,53.215,303.4078,83.1405,276.9678,0.00032885,4.951e-05,0.0,0 STARLINK-5441,1 54787U 22175AF  23224.74733007  .00004951  00000-0  32885-3 0  9990,2 54787  53.2150 303.4078 0000798  83.1405 276.9678 15.08852108 35864,6917.843,95.437,540.26,539.156,0.0
54787.0,STARLINK-5441,PAYLOAD,2023-08-12 22:42:19,15.08836941,5.21e-05,53.2152,302.5163,83.1601,276.945,-2.7376e-05,-7.23e-06,0.0,0 STARLINK-5441,1 54787U 22175AF  23224.94605400 -.00000723  00000-0 -27376-4 0  9992,2 54787  53.2152 302.5163 0000521  83.1601 276.9450 15.08836941 35891,6917.89,95.438,540.115,539.394,0.0
54787.0,STARLINK-5441,PAYLOAD,2023-08-13 16:11:33,15.08848932,7.66e-05,53.2161,299.2429,88.3768,271.7312,0.00054051,8.327e-05,0.0,0 STARLINK-5441,1 54787U 22175AF  23225.67469237  .00008327  00000-0  54051-3 0  9994,2 54787  53.2161 299.2429 0000766  88.3768 271.7312 15.08848932 36007,6917.853,95.437,540.248,539.188,0.0
54787.0,STARLINK-5441,PAYLOAD,2023-08-13 22:33:06,15.08839678,9.11e-05,53.2157,298.0548,92.1895,267.9201,0.00012834,1.755e-05,0.0,0 STARLINK-5441,1 54787U 22175AF  23225.93965587  .00001755  00000-0  12834-3 0  9993,2 54787  53.2157 298.0548 0000911  92.1895 267.9201 15.08839678 36042,6917.881,95.438,540.377,539.116,0.0
54787.0,STARLINK-5441,PAYLOAD,2023-08-15 09:31:35,15.08843465,0.0001105,53.2165,291.5132,88.206,271.9059,0.00029157,4.356e-05,0.0,0 STARLINK-5441,1 54787U 22175AF  23227.39693744  .00004356  00000-0  29157-3 0  9994,2 54787  53.2165 291.5132 0001105  88.2060 271.9059 15.08843465 36263,6917.87,95.437,540.499,538.97,0.0
54787.0,STARLINK-5441,PAYLOAD,2023-08-16 10:57:45,15.08842255,0.0001168,53.2161,286.7575,97.473,262.6395,0.0001245,1.694e-05,0.0,0 STARLINK-5441,1 54787U 22175AF  23228.45677757  .00001694  00000-0  12450-3 0  9998,2 54787  53.2161 286.7575 0001168  97.4730 262.6395 15.08842255 36425,6917.873,95.437,540.547,538.93,0.0
54787.0,STARLINK-5441,PAYLOAD,2023-08-17 20:20:51,15.08836228,0.00013,53.2166,280.5086,100.4582,259.6556,2.7643e-05,1.52e-06,0.0,0 STARLINK-5441,1 54787U 22175AF  23229.84781995  .00000152  00000-0  27643-4 0  9991,2 54787  53.2166 280.5086 0001300 100.4582 259.6556 15.08836228 36638,6917.892,95.438,540.656,538.858,0.0
54787.0,STARLINK-5441,PAYLOAD,2023-08-19 10:30:06,15.08845844,0.0001232,53.2154,273.373,95.2845,264.8288,0.00014205,1.974e-05,0.0,0 STARLINK-5441,1 54787U 22175AF  23231.43757893  .00001974  00000-0  14205-3 0  9991,2 54787  53.2154 273.3730 0001232  95.2845 264.8288 15.08845844 36878,6917.863,95.437,540.58,538.875,0.0
54787.0,STARLINK-5441,PAYLOAD,2023-08-20 11:56:17,15.08837944,0.0001182,53.2149,268.6141,89.9915,270.1212,8.0175e-05,9.88e-06,0.0,0 STARLINK-5441,1 54787U 22175AF  23232.49742623  .00000988  00000-0  80175-4 0  9997,2 54787  53.2149 268.6141 0001182  89.9915 270.1212 15.08837944 37035,6917.887,95.438,540.569,538.934,0.0
54787.0,STARLINK-5441,PAYLOAD,2023-08-21 08:36:18,15.08850261,0.0001157,53.2142,264.7499,84.0562,276.0562,0.00031609,4.748e-05,0.0,0 STARLINK-5441,1 54787U 22175AF  23233.35854196  .00004748  00000-0  31609-3 0  9997,2 54787  53.2142 264.7499 0001157  84.0562 276.0562 15.08850261 37161,6917.849,95.437,540.514,538.914,0.0
54787.0,STARLINK-5441,PAYLOAD,2023-08-22 08:27:05,15.08841032,0.0001243,53.2145,260.29,78.8905,281.2226,0.0001157,1.554e-05,0.0,0 STARLINK-5441,1 54787U 22175AF  23234.35214595  .00001554  00000-0  11570-3 0  9998,2 54787  53.2145 260.2900 0001243  78.8905 281.2226 15.08841032 37318,6917.877,95.437,540.602,538.882,0.0
54787.0,STARLINK-5441,PAYLOAD,2023-08-24 09:44:02,15.08839327,0.0001323,53.2156,251.0708,94.202,265.9123,9.755e-05,1.265e-05,0.0,0 STARLINK-5441,1 54787U 22175AF  23236.40558756  .00001265  00000-0  97550-4 0  9998,2 54787  53.2156 251.0708 0001323  94.2020 265.9123 15.08839327 39785,6917.882,95.438,540.663,538.832,0.0
54787.0,STARLINK-5441,PAYLOAD,2023-08-25 11:10:12,15.08841012,0.0001307,53.2156,246.3131,92.5415,267.5726,7.9473e-05,9.77e-06,0.0,0 STARLINK-5441,1 54787U 22175AF  23237.46542823  .00000977  00000-0  79473-4 0  9996,2 54787  53.2156 246.3131 0001307  92.5415 267.5726 15.08841012 39942,6917.877,95.437,540.646,538.838,0.0
54787.0,STARLINK-5441,PAYLOAD,2023-08-26 14:11:46,15.08843728,0.0001291,53.2154,241.2571,91.512,268.6019,0.0001074,1.422e-05,0.0,0 STARLINK-5441,1 54787U 22175AF  23238.59150738  .00001422  00000-0  10740-3 0  9998,2 54787  53.2154 241.2571 0001291  91.5120 268.6019 15.08843728 40110,6917.869,95.437,540.627,538.841,0.0
54787.0,STARLINK-5441,PAYLOAD,2023-08-27 02:54:51,15.08838681,0.0001335,53.2156,238.8777,95.4614,264.653,5.6129e-05,6.05e-06,0.0,0 STARLINK-5441,1 54787U 22175AF  23239.12143220  .00000605  00000-0  56129-4 0  9990,2 54787  53.2156 238.8777 0001335  95.4614 264.6530 15.08838681 38036,6917.884,95.438,540.673,538.826,0.0
54787.0,STARLINK-5441,PAYLOAD,2023-08-27 04:30:14,15.08840749,0.0001361,53.2157,238.5803,94.849,265.2657,7.3767e-05,8.86e-06,0.0,0 STARLINK-5441,1 54787U 22175AF  23239.18767059  .00000886  00000-0  73767-4 0  9996,2 54787  53.2157 238.5803 0001361  94.8490 265.2657 15.08840749 40205,6917.878,95.438,540.685,538.802,0.0
54787.0,STARLINK-5441,PAYLOAD,2023-08-27 09:16:23,15.08839763,0.0001433,53.2157,237.6883,101.8867,258.2286,0.00016204,2.292e-05,0.0,0 STARLINK-5441,1 54787U 22175AF  23239.38638875  .00002292  00000-0  16204-3 0  9996,2 54787  53.2157 237.6883 0001433 101.8867 258.2286 15.08839763 40237,6917.881,95.438,540.737,538.755,0.0
54787.0,STARLINK-5441,PAYLOAD,2023-08-28 09:07:11,15.08840624,0.0001425,53.215,233.2273,98.1905,261.9249,3.6255e-05,2.89e-06,0.0,0 STARLINK-5441,1 54787U 22175AF  23240.37999269  .00000289  00000-0  36255-4 0  9997,2 54787  53.2150 233.2273 0001425  98.1905 261.9249 15.08840624 38221,6917.878,95.438,540.729,538.758,0.0
54787.0,STARLINK-5441,PAYLOAD,2023-08-28 17:04:07,15.08838644,0.0001418,53.2151,231.7406,94.8316,265.2838,1.5225e-05,-4.6e-07,0.0,0 STARLINK-5441,1 54787U 22175AF  23240.71119466 -.00000046  00000-0  15225-4 0  9994,2 54787  53.2151 231.7406 0001418  94.8316 265.2838 15.08838644 40430,6917.885,95.438,540.73,538.769,0.0
54787.0,STARLINK-5441,PAYLOAD,2023-08-29 08:57:58,15.08844341,0.0001444,53.2154,228.7683,89.3368,270.7789,7.2763e-05,8.7e-06,0.0,0 STARLINK-5441,1 54787U 22175AF  23241.37358998  .00000870  00000-0  72763-4 0  9996,2 54787  53.2154 228.7683 0001444  89.3368 270.7789 15.08844341 40539,6917.867,95.437,540.731,538.733,0.0
54787.0,STARLINK-5441,PAYLOAD,2023-08-29 23:16:26,15.08837862,0.0001446,53.2154,226.0921,88.9061,271.2096,4.8993e-05,4.92e-06,0.0,0 STARLINK-5441,1 54787U 22175AF  23241.96975552  .00000492  00000-0  48993-4 0  9990,2 54787  53.2154 226.0921 0001446  88.9061 271.2096 15.08837862 38468,6917.887,95.438,540.752,538.752,0.0
54787.0,STARLINK-5441,PAYLOAD,2023-08-30 10:24:08,15.08843797,0.0001466,53.2159,224.0098,92.5186,267.5974,9.0228e-05,1.148e-05,0.0,0 STARLINK-5441,1 54787U 22175AF  23242.43343013  .00001148  00000-0  90228-4 0  9991,2 54787  53.2159 224.0098 0001466  92.5186 267.5974 15.08843797 38532,6917.869,95.437,540.748,538.72,0.0
54787.0,STARLINK-5441,PAYLOAD,2023-08-31 00:42:37,15.0883204,0.000151,53.2179,221.3373,88.2919,271.8246,3.0894e-05,2.04e-06,0.0,0 STARLINK-5441,1 54787U 22175AF  23243.02960136  .00000204  00000-0  30894-4 0  9993,2 54787  53.2179 221.3373 0001510  88.2919 271.8246 15.08832040 38625,6917.905,95.438,540.814,538.725,0.0
54787.0,STARLINK-5441,PAYLOAD,2023-08-31 21:22:38,15.08835894,0.0001386,53.2163,217.4686,95.7872,264.3278,4.3025e-05,3.97e-06,0.0,0 STARLINK-5441,1 54787U 22175AF  23243.89072120  .00000397  00000-0  43025-4 0  9998,2 54787  53.2163 217.4686 0001386  95.7872 264.3278 15.08835894 40910,6917.893,95.438,540.717,538.799,0.0
54787.0,STARLINK-5441,PAYLOAD,2023-09-01 10:05:42,15.08847238,0.0001478,53.2157,215.0892,94.4022,265.7139,0.00010428,1.372e-05,0.0,0 STARLINK-5441,1 54787U 22175AF  23244.42063321  .00001372  00000-0  10428-3 0  9995,2 54787  53.2157 215.0892 0001478  94.4022 265.7139 15.08847238 38835,6917.858,95.437,540.746,538.701,0.0
54787.0,STARLINK-5441,PAYLOAD,2023-09-01 14:51:52,15.0884133,0.0001608,53.2161,214.1964,90.2299,269.8877,3.4527e-05,2.62e-06,0.0,0 STARLINK-5441,1 54787U 22175AF  23244.61935880  .00000262  00000-0  34527-4 0  9998,2 54787  53.2161 214.1964 0001608  90.2299 269.8877 15.08841330 38869,6917.876,95.437,540.854,538.629,0.0
54787.0,STARLINK-5441,PAYLOAD,2023-09-02 08:21:06,15.08841444,0.0001024,53.2163,210.9248,74.2359,285.8746,0.00014616,2.039e-05,0.0,0 STARLINK-5441,1 54787U 22175AF  23245.34799697  .00002039  00000-0  14616-3 0  9993,2 54787  53.2163 210.9248 0001024  74.2359 285.8746 15.08841444 41134,6917.876,95.437,540.449,539.033,0.0
54787.0,STARLINK-5441,PAYLOAD,2023-09-02 14:42:40,15.08834956,0.0001333,53.2125,209.7347,88.6564,271.458,3.6204e-05,2.88e-06,0.0,0 STARLINK-5441,1 54787U 22175AF  23245.61296328  .00000288  00000-0  36204-4 0  9998,2 54787  53.2125 209.7347 0001333  88.6564 271.4580 15.08834956 39019,6917.896,95.438,540.683,538.839,0.0
54787.0,STARLINK-5441,PAYLOAD,2023-09-03 05:01:07,15.08846795,0.0001541,53.2161,207.0593,88.0043,272.1125,3.5246e-05,2.73e-06,0.0,0 STARLINK-5441,1 54787U 22175AF  23246.20911588  .00000273  00000-0  35246-4 0  9995,2 54787  53.2161 207.0593 0001541  88.0043 272.1125 15.08846795 39107,6917.86,95.437,540.791,538.659,0.0
